OPS 6582 (TRANSIT 5B-5) 
1 00965U 64083D   21280.55290350  .00000026  00000-0  23204-4 0  9996
2 00965  90.0280 194.7124 0038961 247.5628 285.9989 13.56761251811221
OSCAR 7 (AO-7)          
1 07530U 74089B   21280.54229552 -.00000047  00000-0 -62329-5 0  9990
2 07530 101.8690 254.9792 0012165 165.3340 307.4909 12.53650638145772
UOSAT 2 (UO-11)         
1 14781U 84021B   21280.50975309  .00000264  00000-0  38341-4 0  9992
2 14781  97.5999 274.8710 0009939  75.7865 284.4453 14.83336481  2540
NOAA 9                  
1 15427U 84123A   21280.52570222  .00000031  00000-0  38542-4 0  9995
2 15427  99.0078 244.4567 0015091 158.9501 310.6733 14.16146170900813
LUSAT (LO-19)           
1 20442U 90005G   21280.48444217  .00000016  00000-0  22608-4 0  9992
2 20442  98.7544 237.0357 0011510 186.5784 173.5250 14.32999999656874
ITAMSAT (IO-26)         
1 22826U 93061D   21280.54402918  .00000013  00000-0  22836-4 0  9994
2 22826  98.9082 300.7880 0009879  59.4662 300.7493 14.30467007462256
RADIO ROSTO (RS-15)     
1 23439U 94085A   21280.45261711 -.00000037  00000-0  15882-3 0  9995
2 23439  64.8182 194.8158 0164206 315.7694  43.0199 11.27570511102966
JAS-2 (FO-29)           
1 24278U 96046B   21280.39923836  .00000005  00000-0  42676-4 0  9998
2 24278  98.5549 333.4856 0349683 219.4556 138.0642 13.53106619241389
NOAA 15                 
1 25338U 98030A   21280.55791856  .00000033  00000-0  32229-4 0  9998
2 25338  98.6745 308.0381 0009564 318.9616  41.0843 14.26061738216976
TECHSAT 1B (GO-32)      
1 25397U 98043D   21280.42986078  .00000005  00000-0  21659-4 0  9999
2 25397  98.7809 225.7217 0002293 104.3694 255.7739 14.23717313207423
ISS (ZARYA)             
1 25544U 98067A   21280.62619082  .00003101  00000-0  64553-4 0  9999
2 25544  51.6449 146.7621 0004169  66.2503 337.6571 15.48944939306029
ORSTED                  
1 25635U 99008B   21280.50047091  .00000119  00000-0  36350-4 0  9998
2 25635  96.4783 199.1523 0136803 268.4332  90.1192 14.48324978193666
PHASE 3D (AO-40)        
1 26609U 00072B   21279.58267513 -.00000210  00000-0  00000-0 0  9994
2 26609   8.9887 308.9392 7959996 297.0847   4.9187  1.25587606 95968
PCSAT (NO-44)           
1 26931U 01043C   21280.45358931  .00000006  00000-0  33945-4 0  9994
2 26931  67.0532 351.3865 0005512 271.2140  88.8330 14.30635529 45217
SAUDISAT 1C (SO-50)     
1 27607U 02058C   21280.51861194  .00000137  00000-0  40092-4 0  9995
2 27607  64.5570 355.6425 0054604 348.4138  11.5703 14.75798578 11045
CUTE-1 (CO-55)          
1 27844U 03031E   21280.53934076  .00000092  00000-0  60972-4 0  9991
2 27844  98.6822 287.0589 0010912 112.0462 248.1875 14.22337776947917
CUBESAT XI-IV (CO-57)   
1 27848U 03031J   21280.56597867  .00000070  00000-0  51364-4 0  9992
2 27848  98.6875 287.6421 0010671 124.2995 235.9194 14.21911226947744
MOZHAYETS 4 (RS-22)     
1 27939U 03042A   21280.51363983  .00000250  00000-0  53396-4 0  9997
2 27939  98.1569  56.9282 0011704 288.3342  71.6590 14.67032970963954
INMARSAT 4-F1           
1 28628U 05009A   21280.55818382 -.00000260  00000-0  00000-0 0  9992
2 28628   3.4369  32.2565 0002792 165.0058 163.6226  1.00270821 60486
NOAA 18                 
1 28654U 05018A   21280.42712255  .00000105  00000-0  80930-4 0  9990
2 28654  98.9831 345.6784 0013584 329.5339  30.5042 14.12644339844251
CUBESAT XI-V            
1 28895U 05043F   21280.31399855  .00000325  00000-0  70970-4 0  9997
2 28895  98.0746  51.2081 0016053 214.3874 145.6291 14.63972335850373
METOP-A                 
1 29499U 06044A   21280.54359361  .00000023  00000-0  29600-4 0  9992
2 29499  98.4619 315.2813 0000903  66.4443  76.3499 14.21512530773801
CARTOSAT-2 (IRS-P7)     
1 29710U 07001B   21280.48530987  .00007031  00000-0  21170-3 0  9999
2 29710  97.8710   8.0582 0167206 218.5472 140.3728 15.22012052797689
FALCONSAT-3             
1 30776U 07006E   21280.22406631  .00008393  00000-0  19210-3 0  9992
2 30776  35.4330 101.2701 0002516 237.0370 123.0116 15.42082161810363
CAPE-1                  
1 31130U 07012P   21280.42700769  .00000397  00000-0  94086-4 0  9996
2 31130  98.2401 218.2357 0095881 358.1265   1.9560 14.56743663768257
CARTOSAT-2A             
1 32783U 08021A   21280.46773118  .00000333  00000-0  52570-4 0  9996
2 32783  97.9947 337.8619 0011325 262.7823  97.2114 14.78628472725635
CUTE-1.7+APD II (CO-65) 
1 32785U 08021C   21280.44027220  .00000632  00000-0  73068-4 0  9999
2 32785  97.6242 255.0129 0012893 359.4147   0.7054 14.88827486728837
COMPASS-1               
1 32787U 08021E   21280.49637893  .00001205  00000-0  11715-3 0  9996
2 32787  97.5390 266.9032 0010637 275.5721  84.4286 14.94324603730262
AAUSAT-II               
1 32788U 08021F   21280.48069285  .00001030  00000-0  97175-4 0  9991
2 32788  97.5137 270.4991 0009941 252.3732 107.6404 14.95811702730607
DELFI-C3 (DO-64)        
1 32789U 08021G   21280.46258145  .00003027  00000-0  19215-3 0  9991
2 32789  97.3675 311.5003 0013232 114.7009 245.5599 15.09533289733720
SEEDS II (CO-66)        
1 32791U 08021J   21280.40116156  .00000805  00000-0  85553-4 0  9993
2 32791  97.5828 260.7709 0012087 319.3730  40.6587 14.91559094729463
YUBILEINY (RS-30)       
1 32953U 08025A   21280.50180296  .00000021  00000-0  80971-4 0  9993
2 32953  82.5074 341.2534 0020652  93.7239 266.6205 12.43104860606907
FENGYUN 3A              
1 32958U 08026A   21280.48583899  .00000001  00000-0  20548-4 0  9994
2 32958  98.4645 248.9926 0009528  40.6915 319.4972 14.18670291692465
PRISM (HITOMI)          
1 33493U 09002B   21280.49635789  .00001203  00000-0  10755-3 0  9994
2 33493  98.2014 248.5292 0013860 278.3380  81.6269 14.97922844691096
STARS (KUKAI)           
1 33498U 09002G   21280.40303514  .00000467  00000-0  69929-4 0  9997
2 33498  98.1959 162.7764 0010806 353.7171   6.3903 14.79435749684018
KKS-1 (KISEKI)          
1 33499U 09002H   21280.55474135  .00000234  00000-0  42012-4 0  9998
2 33499  98.2502 152.9214 0010103  48.5404 311.6670 14.75708768682946
NOAA 19                 
1 33591U 09005A   21280.54280315  .00000029  00000-0  41121-4 0  9990
2 33591  99.1782 303.9981 0014049 174.3368 185.7964 14.12499205652743
SWISSCUBE               
1 35932U 09051B   21280.46519999  .00000229  00000-0  62489-4 0  9998
2 35932  98.5940 123.9731 0008651 101.6071 258.6097 14.56588829639260
BEESAT-1                
1 35933U 09051C   21280.56405469  .00000196  00000-0  55005-4 0  9995
2 35933  98.5895 125.8488 0006758 111.5915 248.6003 14.56639987639351
ITUPSAT1                
1 35935U 09051E   21280.56639970  .00000171  00000-0  50289-4 0  9995
2 35935  98.5996 125.9661 0009055 114.4997 245.7144 14.55767913639088
XIWANG-1 (HOPE-1)       
1 36122U 09072B   21280.55918086 -.00000048  00000-0 -14640-4 0  9990
2 36122 100.1464 256.6380 0007170 198.9831 161.1017 13.16363015567538
CARTOSAT-2B             
1 36795U 10035A   21280.64149385  .00000146  00000-0  27148-4 0  9999
2 36795  97.9896 338.2812 0013520 346.8932  13.1929 14.78640657606705
TISAT 1                 
1 36799U 10035E   21280.53102922  .00000665  00000-0  71802-4 0  9999
2 36799  98.2023 115.8880 0011448 200.7219 159.3536 14.91889405610042
FENGYUN 3B              
1 37214U 10059A   21280.45771735  .00000031  00000-0  39254-4 0  9995
2 37214  99.0875 276.7462 0017134   0.1712 359.9466 14.16001113565183
JUGNU                   
1 37839U 11058B   21280.35352833  .00000360  00000-0  49529-4 0  9992
2 37839  19.9612 270.5489 0018702 245.8068 249.5916 14.12727716516305
SRMSAT                  
1 37841U 11058D   21280.52934328  .00000326  00000-0  34013-4 0  9993
2 37841  19.9733 343.6816 0012048  84.8077 303.4370 14.10706128515480
M-CUBED & EXP-1 PRIME   
1 37855U 11061F   21280.55533056  .00004067  00000-0  19835-3 0  9998
2 37855 101.7213 262.1892 0165264  97.0630 264.9408 15.08252893543079
HORYU-2                 
1 38340U 12025D   21280.46932650  .00000420  00000-0  68634-4 0  9993
2 38340  98.2228 349.8633 0010508 322.3706  37.6767 14.76120916494914
METOP-B                 
1 38771U 12049A   21280.52532356 -.00000031  00000-0  60112-5 0  9996
2 38771  98.7032 339.1201 0002017  73.9941  62.8345 14.21487219469791
SARAL                   
1 39086U 13009A   21280.53083611  .00000003  00000-0  17393-4 0  9999
2 39086  98.5474 104.9138 0000425  40.4707 319.6508 14.32062792450281
AAUSAT 3                
1 39087U 13009B   21280.49320585  .00000203  00000-0  84561-4 0  9992
2 39087  98.4162 121.2103 0011912 305.2467  54.7606 14.35978645451279
STRAND-1                
1 39090U 13009E   21280.51296672  .00000106  00000-0  52244-4 0  9993
2 39090  98.4196 120.0330 0008269 310.4417  49.6047 14.35188512451114
BRITE-AUSTRIA           
1 39091U 13009F   21280.56588131  .00000031  00000-0  25756-4 0  9998
2 39091  98.4205 119.2274 0009709 316.5933  43.4488 14.35204036451158
UNIBRITE                
1 39092U 13009G   21280.49514730  .00000040  00000-0  29115-4 0  9998
2 39092  98.4234 118.8796 0008528 311.9824  48.0635 14.35074895451109
SOMP                    
1 39134U 13015E   21280.41085002  .00004209  00000-0  18459-3 0  9998
2 39134  64.8635 168.2183 0019542 314.8200  45.1339 15.23262285468269
BEESAT-3                
1 39135U 13015F   21280.25672213  .00003854  00000-0  18718-3 0  9990
2 39135  64.8678 199.7848 0017537 332.6113  27.4088 15.19901874467595
BEESAT-2                
1 39136U 13015G   21280.30320378  .00003377  00000-0  16841-3 0  9994
2 39136  64.8766 206.5021 0017782 241.0378 118.8966 15.19216662467428
NEE-01 PEGASO           
1 39151U 13018B   21280.55873610  .00000391  00000-0  58101-4 0  9992
2 39151  97.9841  22.3918 0016799 359.7374   0.3826 14.80423065456258
CUBEBUG-1 (CAPITAN BETO)
1 39153U 13018D   21280.53186616  .00000487  00000-0  69725-4 0  9995
2 39153  98.0009  25.9380 0016570 354.8822   5.2218 14.81016475456311
